{
  "norad_id": 40946,
  "name": "MORELOS 3",
  "history": [
    {
      "epoch": "2026-03-28T15:57:36.048384Z",
      "apogee_km": 35800.6181149322,
      "perigee_km": 35772.09467843921,
      "latitude_deg": -2.7066026753527095,
      "longitude_deg": -113.102392486897,
      "height_km": 35779.08920399267,
      "semi_major_axis_km": 42164.493396685706,
      "eccentricity": 0.00033824,
      "inclination_deg": 3.1262,
      "raan_deg": 12.8052,
      "arg_perigee_deg": 359.6829,
      "mean_anomaly_deg": 299.8671,
      "mean_motion_rev_day": 1.00272636
    },
    {
      "epoch": "2026-03-29T03:18:38.644992Z",
      "apogee_km": 35800.62012411649,
      "perigee_km": 35772.057908063194,
      "latitude_deg": 2.916197207385635,
      "longitude_deg": -113.03862259735487,
      "height_km": 35790.51685333593,
      "semi_major_axis_km": 42164.476016089844,
      "eccentricity": 0.0003387,
      "inclination_deg": 3.1266,
      "raan_deg": 12.8183,
      "arg_perigee_deg": 359.9816,
      "mean_anomaly_deg": 110.2837,
      "mean_motion_rev_day": 1.00272698
    },
    {
      "epoch": "2026-03-30T05:31:16.819392Z",
      "apogee_km": 35800.58760466402,
      "perigee_km": 35772.016980599336,
      "latitude_deg": 1.804908779955842,
      "longitude_deg": -113.03622551673261,
      "height_km": 35797.09184302758,
      "semi_major_axis_km": 42164.43929263168,
      "eccentricity": 0.0003388,
      "inclination_deg": 3.1275,
      "raan_deg": 12.8492,
      "arg_perigee_deg": 1.3159,
      "mean_anomaly_deg": 143.1579,
      "mean_motion_rev_day": 1.00272829
    },
    {
      "epoch": "2026-03-30T05:31:16.820256Z",
      "apogee_km": 35800.58760466402,
      "perigee_km": 35772.016980599336,
      "latitude_deg": 1.8049087799349008,
      "longitude_deg": -113.03622912660524,
      "height_km": 35797.091843027614,
      "semi_major_axis_km": 42164.43929263168,
      "eccentricity": 0.0003388,
      "inclination_deg": 3.1275,
      "raan_deg": 12.8492,
      "arg_perigee_deg": 1.3159,
      "mean_anomaly_deg": 143.1579,
      "mean_motion_rev_day": 1.00272829
    },
    {
      "epoch": "2026-03-30T10:44:31.306848Z",
      "apogee_km": 35800.570615759505,
      "perigee_km": 35772.019392272305,
      "latitude_deg": -2.1172511963952325,
      "longitude_deg": -113.16643667561657,
      "height_km": 35796.87526173929,
      "semi_major_axis_km": 42164.43200401591,
      "eccentricity": 0.00033857,
      "inclination_deg": 3.1276,
      "raan_deg": 12.8554,
      "arg_perigee_deg": 1.8549,
      "mean_anomaly_deg": 221.1385,
      "mean_motion_rev_day": 1.00272855
    },
    {
      "epoch": "2026-03-30T15:52:39.254880Z",
      "apogee_km": 35800.55757091914,
      "perigee_km": 35772.01057127717,
      "latitude_deg": -2.685592802923286,
      "longitude_deg": -113.09697398764136,
      "height_km": 35779.29474454653,
      "semi_major_axis_km": 42164.42107109816,
      "eccentricity": 0.00033852,
      "inclination_deg": 3.1278,
      "raan_deg": 12.8616,
      "arg_perigee_deg": 1.6985,
      "mean_anomaly_deg": 298.5339,
      "mean_motion_rev_day": 1.00272894
    },
    {
      "epoch": "2026-03-31T15:50:06.809856Z",
      "apogee_km": 35800.52590090916,
      "perigee_km": 35771.96374866105,
      "latitude_deg": -2.675726791156891,
      "longitude_deg": -113.09461125486872,
      "height_km": 35779.357956658205,
      "semi_major_axis_km": 42164.38182478511,
      "eccentricity": 0.0003387,
      "inclination_deg": 3.1286,
      "raan_deg": 12.8901,
      "arg_perigee_deg": 2.5035,
      "mean_anomaly_deg": 298.0537,
      "mean_motion_rev_day": 1.00273034
    },
    {
      "epoch": "2026-04-01T15:47:43.488672Z",
      "apogee_km": 35800.88995681375,
      "perigee_km": 35772.04093581998,
      "latitude_deg": -2.6655529760121874,
      "longitude_deg": -113.09899034620527,
      "height_km": 35777.83382217718,
      "semi_major_axis_km": 42164.60244631687,
      "eccentricity": 0.0003421,
      "inclination_deg": 3.1293,
      "raan_deg": 12.9244,
      "arg_perigee_deg": 354.9343,
      "mean_anomaly_deg": 305.9709,
      "mean_motion_rev_day": 1.00272247
    }
  ]
}